NORAD_CAT_ID,OBJECT_NAME,OBJECT_TYPE,EPOCH,MEAN_MOTION,ECCENTRICITY,INCLINATION,RA_OF_ASC_NODE,ARG_OF_PERICENTER,MEAN_ANOMALY,BSTAR,MEAN_MOTION_DOT,MEAN_MOTION_DDOT,TLE_LINE0,TLE_LINE1,TLE_LINE2,SEMIMAJOR_AXIS,PERIOD,APOGEE,PERIGEE,DECAYED
52485.0,STARLINK-3913,PAYLOAD,2022-06-01 20:00:01,15.73218855,0.0002034,53.2151,135.4936,21.67,14.7021,-0.00013623,-0.00019712,0.0,0 STARLINK-3913,1 52485U 22049AL  22152.83334491 -.00019712  00000-0 -13623-3 0  9998,2 52485  53.2151 135.4936 0002034  21.6700  14.7021 15.73218855  4339,6727.840999999999,91.532,351.075,348.338,0.0
52485.0,STARLINK-3913,PAYLOAD,2022-06-03 05:23:21,15.73217379,0.0002332,53.2157,128.6086,25.5595,334.5540000000001,3.9324e-05,4.905e-05,0.0,0 STARLINK-3913,1 52485U 22049AL  22154.22455665  .00004905  00000-0  39324-4 0  9993,2 52485  53.2157 128.6086 0002332  25.5595 334.5540 15.73217379  4554,6727.846,91.532,351.28,348.142,0.0
52485.0,STARLINK-3913,PAYLOAD,2022-06-03 09:57:47,15.73224543,0.0002192,53.2163,127.6667,23.3746,336.7374,4.903100000000001e-05,6.272e-05,0.0,0 STARLINK-3913,1 52485U 22049AL  22154.41513848  .00006272  00000-0  49031-4 0  9997,2 52485  53.2163 127.6667 0002192  23.3746 336.7374 15.73224543  4429,6727.825,91.532,351.165,348.215,0.0
52485.0,STARLINK-3913,PAYLOAD,2022-06-04 04:15:33,15.73217754,0.0002064,53.2159,123.8936,36.2003,323.9157,3.5078e-05,4.308e-05,0.0,0 STARLINK-3913,1 52485U 22049AL  22155.17747255  .00004308  00000-0  35078-4 0  9996,2 52485  53.2159 123.8936 0002064  36.2003 323.9157 15.73217754  4702,6727.845,91.532,351.098,348.321,0.0
52485.0,STARLINK-3913,PAYLOAD,2022-06-04 08:50:00,15.73195654,0.0002005,53.2159,122.9505,30.724,329.3897,-3.3588000000000004e-05,-5.331e-05,0.0,0 STARLINK-3913,1 52485U 22049AL  22155.36806137 -.00005331  00000-0 -33588-4 0  9995,2 52485  53.2159 122.9505 0002005  30.7240 329.3897 15.73195654  4739,6727.908,91.533,351.122,348.4240000000001,0.0
52485.0,STARLINK-3913,PAYLOAD,2022-06-05 22:00:00,15.73229928,0.000208,53.2165,115.2879,34.9164,100.8888,-0.00021439,-0.00030641,0.0,0 STARLINK-3913,1 52485U 22049AL  22156.91667824 -.00030641  00000-0 -21439-3 0  9998,2 52485  53.2165 115.2879 0002080  34.9164 100.8888 15.73229928  4979,6727.81,91.531,351.074,348.275,0.0
52485.0,STARLINK-3913,PAYLOAD,2022-06-06 14:00:01,15.73258641,0.0002043,53.216,111.9895,28.4622,285.2284,-0.00066528,-0.00093204,0.0,0 STARLINK-3913,1 52485U 22049AL  22157.58334491 -.00093204  00000-0 -66528-3 0  9995,2 52485  53.2160 111.9895 0002043  28.4622 285.2284 15.73258641  5075,6727.728,91.53,350.967,348.219,0.0
52485.0,STARLINK-3913,PAYLOAD,2022-06-06 22:00:00,15.73206552,0.0001894,53.2161,110.3396,28.2059,14.4442,0.0002416,0.00033432,0.0,0 STARLINK-3913,1 52485U 22049AL  22157.91667824  .00033432  00000-0  24160-3 0  9992,2 52485  53.2161 110.3396 0001894  28.2059  14.4442 15.73206552  5139,6727.876,91.533,351.016,348.467,0.0
52485.0,STARLINK-3913,PAYLOAD,2022-06-07 14:00:01,15.73225303,0.0001868,53.216,107.0408,22.0954,198.4605,-0.00012944,-0.00018767,0.0,0 STARLINK-3913,1 52485U 22049AL  22158.58334491 -.00018767  00000-0 -12944-3 0  9990,2 52485  53.2160 107.0408 0001868  22.0954 198.4605 15.73225303  5232,6727.823,91.532,350.945,348.431,0.0
52485.0,STARLINK-3913,PAYLOAD,2022-06-07 22:00:00,15.73210479,0.0001893,53.2163,105.3908,29.5695,279.9425,-5.1666e-05,-7.869e-05,0.0,0 STARLINK-3913,1 52485U 22049AL  22158.91667824 -.00007869  00000-0 -51666-4 0  9992,2 52485  53.2163 105.3908 0001893  29.5695 279.9425 15.73210479  1300,6727.865,91.533,351.004,348.457,0.0
52485.0,STARLINK-3913,PAYLOAD,2022-06-08 06:00:02,15.73224837,0.0002109,53.2162,103.7431,25.8868,12.6483,-0.00011817,-0.00017191,0.0,0 STARLINK-3913,1 52485U 22049AL  22159.25002315 -.00017191  00000-0 -11817-3 0  9990,2 52485  53.2162 103.7431 0002109  25.8868  12.6483 15.73224837  5341,6727.824000000001,91.532,351.108,348.27,0.0
52485.0,STARLINK-3913,PAYLOAD,2022-06-08 14:00:01,15.73226384,0.0001932,53.216,102.0918,27.6613,99.7581,-0.00046583,-0.00065568,0.0,0 STARLINK-3913,1 52485U 22049AL  22159.58334491 -.00065568  00000-0 -46583-3 0  9998,2 52485  53.2160 102.0918 0001932  27.6613  99.7581 15.73226384  1308,6727.82,91.532,350.985,348.385,0.0
52485.0,STARLINK-3913,PAYLOAD,2022-06-08 22:00:01,15.73161164,0.0002039,53.216,100.4423,37.3249,179.0716,-0.00044003,-0.00061828,0.0,0 STARLINK-3913,1 52485U 22049AL  22159.91668981 -.00061828  00000-0 -44003-3 0  9999,2 52485  53.2160 100.4423 0002039  37.3249 179.0716 15.73161164  5448,6728.005999999999,91.535,351.24300000000005,348.499,0.0
52485.0,STARLINK-3913,PAYLOAD,2022-06-09 14:00:01,15.73134625,0.0002061,53.2159,97.1435,39.0796,354.9368,0.00030314,0.00042019,0.0,0 STARLINK-3913,1 52485U 22049AL  22160.58334491  .00042019  00000-0  30314-3 0  9999,2 52485  53.2159  97.1435 0002061  39.0796 354.9368 15.73134625  1302,6728.081999999999,91.537,351.333,348.56,0.0
52485.0,STARLINK-3913,PAYLOAD,2022-06-09 22:00:00,15.73183658,0.0002118,53.2163,95.4941,41.9014,80.9757,0.00012161,0.00016469,0.0,0 STARLINK-3913,1 52485U 22049AL  22160.91667824  .00016469  00000-0  12161-3 0  9995,2 52485  53.2163  95.4941 0002118  41.9014  80.9757 15.73183658  1306,6727.941999999999,91.534,351.232,348.38199999999995,0.0
52485.0,STARLINK-3913,PAYLOAD,2022-06-10 00:00:00,15.73189529,0.0002182,53.2162,95.0824,40.2722,194.8316,6.5202e-05,8.535e-05,0.0,0 STARLINK-3913,1 52485U 22049AL  22161.00001157  .00008535  00000-0  65202-4 0  9997,2 52485  53.2162  95.0824 0002182  40.2722 194.8316 15.73189529  5617,6727.925,91.534,351.2580000000001,348.32199999999995,0.0
52485.0,STARLINK-3913,PAYLOAD,2022-06-10 14:00:01,15.73224756,0.0002067,53.2163,92.1944,40.0439,260.7114,0.00027654,0.0003841,0.0,0 STARLINK-3913,1 52485U 22049AL  22161.58334491  .00038410  00000-0  27654-3 0  9993,2 52485  53.2163  92.1944 0002067  40.0439 260.7114 15.73224756  5705,6727.825,91.532,351.08,348.2990000000001,0.0
52485.0,STARLINK-3913,PAYLOAD,2022-06-10 22:00:00,15.73293435,0.0001931,53.2164,90.5453,38.7117,351.0357,-0.0005351,-0.00075355,0.0,0 STARLINK-3913,1 52485U 22049AL  22161.91667824 -.00075355  00000-0 -53510-3 0  9990,2 52485  53.2164  90.5453 0001931  38.7117 351.0357 15.73293435  1304,6727.629,91.528,350.793,348.195,0.0
52485.0,STARLINK-3913,PAYLOAD,2022-06-11 06:00:00,15.7324448,0.0001976,53.2161,88.8973,29.6872,89.0575,-0.00013753,-0.00019915,0.0,0 STARLINK-3913,1 52485U 22049AL  22162.25001157 -.00019915  00000-0 -13753-3 0  9994,2 52485  53.2161  88.8973 0001976  29.6872  89.0575 15.73244480  5810,6727.768,91.531,350.963,348.30400000000014,0.0
52485.0,STARLINK-3913,PAYLOAD,2022-06-11 22:00:00,15.73191988,0.0001624,53.2168,85.5966,24.0479,272.5982,8.9923e-05,0.00012014,0.0,0 STARLINK-3913,1 52485U 22049AL  22162.91667824  .00012014  00000-0  89923-4 0  9990,2 52485  53.2168  85.5966 0001624  24.0479 272.5982 15.73191988  5911,6727.918000000002,91.534,350.876,348.69,0.0
52485.0,STARLINK-3913,PAYLOAD,2022-06-12 14:00:01,15.7316872,0.0001663,53.2169,82.2972,27.7285,86.8143,0.00036181,0.00050395,0.0,0 STARLINK-3913,1 52485U 22049AL  22163.58334491  .00050395  00000-0  36181-3 0  9996,2 52485  53.2169  82.2972 0001663  27.7285  86.8143 15.73168720  1303,6727.984,91.535,350.968,348.73,0.0
52485.0,STARLINK-3913,PAYLOAD,2022-06-12 22:00:00,15.73246759,0.0001702,53.2169,80.6487,29.2554,174.1954,-0.00059758,-0.00083827,0.0,0 STARLINK-3913,1 52485U 22049AL  22163.91667824 -.00083827  00000-0 -59758-3 0  9995,2 52485  53.2169  80.6487 0001702  29.2554 174.1954 15.73246759  1306,6727.762,91.53,350.772,348.482,0.0
52485.0,STARLINK-3913,PAYLOAD,2022-06-13 06:00:02,15.73177538,0.0001793,53.2165,79.0005,21.1078,271.3822,0.00070263,0.00099066,0.0,0 STARLINK-3913,1 52485U 22049AL  22164.25002315  .00099066  00000-0  70263-3 0  9995,2 52485  53.2165  79.0005 0001793  21.1078 271.3822 15.73177538  6129,6727.959,91.534,351.031,348.61800000000005,0.0
52485.0,STARLINK-3913,PAYLOAD,2022-06-13 14:00:01,15.73235729,0.0001554,53.2168,77.3489,26.962,354.401,-9.6121e-05,-0.00014109,0.0,0 STARLINK-3913,1 52485U 22049AL  22164.58334491 -.00014109  00000-0 -96121-4 0  9993,2 52485  53.2168  77.3489 0001554  26.9620 354.4010 15.73235729  6185,6727.793000000002,91.531,350.704,348.61300000000006,0.0
52485.0,STARLINK-3913,PAYLOAD,2022-06-13 22:00:00,15.73264484,0.0001689,53.2172,75.7004,30.387,79.9472,-0.00072466,-0.00101389,0.0,0 STARLINK-3913,1 52485U 22049AL  22164.91667824 -.00101389  00000-0 -72466-3 0  9991,2 52485  53.2172  75.7004 0001689  30.3870  79.9472 15.73264484  1300,6727.7109999999975,91.529,350.713,348.44,0.0
52485.0,STARLINK-3913,PAYLOAD,2022-06-14 06:00:00,15.73154303,0.0001873,53.2169,74.0521,26.4932,172.8018,0.00022441,0.00030929,0.0,0 STARLINK-3913,1 52485U 22049AL  22165.25001157  .00030929  00000-0  22441-3 0  9997,2 52485  53.2169  74.0521 0001873  26.4932 172.8018 15.73154303  6281,6728.025,91.536,351.151,348.63,0.0
52485.0,STARLINK-3913,PAYLOAD,2022-06-14 14:00:01,15.73171894,0.0001705,53.217,72.4008,35.1863,252.9998,-1.1441e-05,-2.224e-05,0.0,0 STARLINK-3913,1 52485U 22049AL  22165.58334491 -.00002224  00000-0 -11441-4 0  9991,2 52485  53.2170  72.4008 0001705  35.1863 252.9998 15.73171894  1308,6727.975,91.535,350.987,348.6930000000001,0.0
52485.0,STARLINK-3913,PAYLOAD,2022-06-14 22:00:00,15.73168776,0.0001857,53.217,70.7527,38.2341,338.8491,0.00013752,0.00018697,0.0,0 STARLINK-3913,1 52485U 22049AL  22165.91667824  .00018697  00000-0  13752-3 0  9992,2 52485  53.2170  70.7527 0001857  38.2341 338.8491 15.73168776  6399,6727.984,91.535,351.099,348.6,0.0
52485.0,STARLINK-3913,PAYLOAD,2022-06-15 14:00:01,15.73148335,0.0001528,53.2164,67.4526,32.5232,162.3892,0.00056207,0.00078831,0.0,0 STARLINK-3913,1 52485U 22049AL  22166.58334491  .00078831  00000-0  56207-3 0  9995,2 52485  53.2164  67.4526 0001528  32.5232 162.3892 15.73148335  1305,6728.042,91.536,350.936,348.879,0.0
